[
    {
        "CCSDS_OMM_VERS": "3.0",
        "COMMENT": "GENERATED VIA SPACE-TRACK.ORG API",
        "CREATION_DATE": "2025-03-02T15:06:27",
        "ORIGINATOR": "18 SPCS",
        "OBJECT_NAME": "NAVSTAR 81 (USA 319)",
        "OBJECT_ID": "2021-054A",
        "CENTER_NAME": "EARTH",
        "REF_FRAME": "TEME",
        "TIME_SYSTEM": "UTC",
        "MEAN_ELEMENT_THEORY": "SGP4",
        "EPOCH": "2025-03-02T13:17:20.873184",
        "MEAN_MOTION": "2.00569882",
        "ECCENTRICITY": "0.00188390",
        "INCLINATION": "55.3392",
        "RA_OF_ASC_NODE": "351.3904",
        "ARG_OF_PERICENTER": "230.9969",
        "MEAN_ANOMALY": "273.7619",
        "EPHEMERIS_TYPE": "0",
        "CLASSIFICATION_TYPE": "U",
        "NORAD_CAT_ID": "48859",
        "ELEMENT_SET_NO": "999",
        "REV_AT_EPOCH": "2729",
        "BSTAR": "0.00000000000000",
        "MEAN_MOTION_DOT": "-0.00000084",
        "MEAN_MOTION_DDOT": "0.0000000000000",
        "SEMIMAJOR_AXIS": "26559.794",
        "PERIOD": "717.954",
        "APOAPSIS": "20231.695",
        "PERIAPSIS": "20131.623",
        "OBJECT_TYPE": "PAYLOAD",
        "RCS_SIZE": "LARGE",
        "COUNTRY_CODE": "US",
        "LAUNCH_DATE": "2021-06-17",
        "SITE": "AFETR",
        "DECAY_DATE": null,
        "FILE": "4657106",
        "GP_ID": "282069416",
        "TLE_LINE0": "0 NAVSTAR 81 (USA 319)",
        "TLE_LINE1": "1 48859U 21054A   25061.55371381 -.00000084  00000-0  00000+0 0  9995",
        "TLE_LINE2": "2 48859  55.3392 351.3904 0018839 230.9969 273.7619  2.00569882 27290"
    }
]